NORAD_CAT_ID,OBJECT_NAME,OBJECT_TYPE,EPOCH,MEAN_MOTION,ECCENTRICITY,INCLINATION,RA_OF_ASC_NODE,ARG_OF_PERICENTER,MEAN_ANOMALY,BSTAR,MEAN_MOTION_DOT,MEAN_MOTION_DDOT,TLE_LINE0,TLE_LINE1,TLE_LINE2,SEMIMAJOR_AXIS,PERIOD,APOGEE,PERIGEE,DECAYED
55307.0,STARLINK-5288,PAYLOAD,2023-07-21 14:00:01,15.55452459,0.0003364,70.0,274.4741,273.6932,61.126,-0.01401,-0.00874763,0.0,0 STARLINK-5288,1 55307U 23010AQ  23202.58334491 -.00874763  00000-0 -14010-1 0  9996,2 55307  70.0000 274.4741 0003364 273.6932  61.1260 15.55452459 29233,6778.975,92.578,403.12,398.559,0.0
55307.0,STARLINK-5288,PAYLOAD,2023-07-24 14:00:01,15.51202711,0.0003917,69.9999,266.2527,275.3729,264.2068,0.00086683,0.00051046,0.0,0 STARLINK-5288,1 55307U 23010AQ  23205.58334491  .00051046  00000-0  86683-3 0  9995,2 55307  69.9999 266.2527 0003917 275.3729 264.2068 15.51202711  2373,6791.35,92.831,415.876,410.555,0.0
55307.0,STARLINK-5288,PAYLOAD,2023-07-25 14:00:01,15.51213487,0.0003842,69.9998,263.5188,273.0106,89.3726,0.00052497,0.00030782,0.0,0 STARLINK-5288,1 55307U 23010AQ  23206.58335648  .00030782  00000-0  52497-3 0  9991,2 55307  69.9998 263.5188 0003842 273.0106  89.3726 15.51213487  2522,6791.319,92.831,415.793,410.575,0.0
55307.0,STARLINK-5288,PAYLOAD,2023-07-26 14:00:01,15.51363926,0.0003584,70.0002,260.7846,274.7557,270.2947,-0.013902,-0.00757481,0.0,0 STARLINK-5288,1 55307U 23010AQ  23207.58334491 -.00757481  00000-0 -13902-1 0  9997,2 55307  70.0002 260.7846 0003584 274.7557 270.2947 15.51363926  2689,6790.88,92.822,415.179,410.311,0.0
55307.0,STARLINK-5288,PAYLOAD,2023-07-26 22:00:01,15.50776381,0.0003394,70.0001,259.8732,269.4045,336.4836,-0.016075,-0.0084918,0.0,0 STARLINK-5288,1 55307U 23010AQ  23207.91668981 -.00849180  00000-0 -16075-1 0  9990,2 55307  70.0001 259.8732 0003394 269.4045 336.4836 15.50776381 30060,6792.595,92.857,416.765,412.155,0.0
55307.0,STARLINK-5288,PAYLOAD,2023-07-27 00:00:00,15.50615339,0.0003508,70.0,259.6456,268.9331,81.9658,-0.01603,-0.00842586,0.0,0 STARLINK-5288,1 55307U 23010AQ  23208.00001157 -.00842586  00000-0 -16030-1 0  9991,2 55307  70.0000 259.6456 0003508 268.9331  81.9658 15.50615339  2742,6793.065,92.866,417.313,412.547,0.0
55307.0,STARLINK-5288,PAYLOAD,2023-07-27 03:08:30,15.50875771,0.0003651,69.9973,259.2892,265.0794,94.9976,-0.00073144,-0.00042376,0.0,0 STARLINK-5288,1 55307U 23010AQ  23208.13090453 -.00042376  00000-0 -73144-3 0  9992,2 55307  69.9973 259.2892 0003651 265.0794  94.9976 15.50875771 30092,6792.305,92.851,416.65,411.69,0.0
55307.0,STARLINK-5288,PAYLOAD,2023-07-27 09:20:19,15.50636243,0.0001144,69.9974,258.5853,202.7196,157.3939,-0.0012238,-0.00069928,0.0,0 STARLINK-5288,1 55307U 23010AQ  23208.38911335 -.00069928  00000-0 -12238-2 0  9998,2 55307  69.9974 258.5853 0001144 202.7196 157.3939 15.50636243 30138,6793.004,92.865,415.646,414.092,0.0
55307.0,STARLINK-5288,PAYLOAD,2023-07-27 13:59:12,15.50455076,0.0008098,69.9972,258.0569,271.6247,88.4011,-0.0015626,-0.00088601,0.0,0 STARLINK-5288,1 55307U 23010AQ  23208.58278817 -.00088601  00000-0 -15626-2 0  9994,2 55307  69.9972 258.0569 0008098 271.6247  88.4011 15.50455076 30488,6793.533,92.876,420.9,409.897,0.0
55307.0,STARLINK-5288,PAYLOAD,2023-07-27 22:00:00,15.48813015,0.0003273,70.0002,257.145,271.9278,151.617,-0.016942,-0.00835971,0.0,0 STARLINK-5288,1 55307U 23010AQ  23208.91667824 -.00835971  00000-0 -16942-1 0  9992,2 55307  70.0002 257.1450 0003273 271.9278 151.6170 15.48813015 30219,6798.334,92.974,422.424,417.974,0.0
55307.0,STARLINK-5288,PAYLOAD,2023-07-28 06:00:00,15.48226157,0.0003246,70.0003,256.2375,272.5481,208.6554,-0.019916,-0.00964367,0.0,0 STARLINK-5288,1 55307U 23010AQ  23209.25001157 -.00964367  00000-0 -19916-1 0  9997,2 55307  70.0003 256.2375 0003246 272.5481 208.6554 15.48226157 30279,6800.052,93.01,424.124,419.71,0.0
55307.0,STARLINK-5288,PAYLOAD,2023-07-28 14:00:01,15.47544953,0.0003122,69.9999,255.3308,277.8703,260.2302,-0.019036,-0.00904988,0.0,0 STARLINK-5288,1 55307U 23010AQ  23209.58334491 -.00904988  00000-0 -19036-1 0  9999,2 55307  69.9999 255.3308 0003122 277.8703 260.2302 15.47544953  2993,6802.047,93.051,426.036,421.789,0.0
55307.0,STARLINK-5288,PAYLOAD,2023-07-28 22:00:00,15.46862221,0.0003207,70.0001,254.4248,270.4331,323.7874,-0.018299,-0.00842774,0.0,0 STARLINK-5288,1 55307U 23010AQ  23209.91667824 -.00842774  00000-0 -18299-1 0  9999,2 55307  70.0001 254.4248 0003207 270.4331 323.7874 15.46862221 30375,6804.049,93.092,428.096,423.732,0.0
55307.0,STARLINK-5288,PAYLOAD,2023-07-29 14:00:01,15.45590301,0.0003354,69.9998,252.6159,275.8463,68.3038,-0.020476,-0.00909455,0.0,0 STARLINK-5288,1 55307U 23010AQ  23210.58335648 -.00909455  00000-0 -20476-1 0  9990,2 55307  69.9998 252.6159 0003354 275.8463  68.3038 15.45590301 30477,6807.781,93.168,431.929,427.363,0.0
55307.0,STARLINK-5288,PAYLOAD,2023-07-30 06:00:02,15.4430442,0.0003318,69.9998,250.8104,270.512,180.3828,-0.022486,-0.00951943,0.0,0 STARLINK-5288,1 55307U 23010AQ  23211.25002315 -.00951943  00000-0 -22486-1 0  9999,2 55307  69.9998 250.8104 0003318 270.5120 180.3828 15.44304420 30587,6811.56,93.246,435.685,431.165,0.0
55307.0,STARLINK-5288,PAYLOAD,2023-07-30 22:00:00,15.42947511,0.0003191,69.9993,249.0086,267.3288,287.1287,-0.020877,-0.00841063,0.0,0 STARLINK-5288,1 55307U 23010AQ  23211.91667824 -.00841063  00000-0 -20877-1 0  9997,2 55307  69.9993 249.0086 0003191 267.3288 287.1287 15.42947511 30687,6815.553,93.328,439.592,435.243,0.0
55307.0,STARLINK-5288,PAYLOAD,2023-07-31 06:00:00,15.42342099,0.0003303,69.9993,248.1092,268.5051,336.5784,-0.023757,-0.00941993,0.0,0 STARLINK-5288,1 55307U 23010AQ  23212.25001157 -.00941993  00000-0 -23757-1 0  9999,2 55307  69.9993 248.1092 0003303 268.5051 336.5784 15.42342099 30737,6817.336,93.365,441.453,436.949,0.0
55307.0,STARLINK-5288,PAYLOAD,2023-08-01 06:00:00,15.40403131,0.0003498,69.999,245.4159,273.0607,119.2239,-0.025942,-0.00962337,0.0,0 STARLINK-5288,1 55307U 23010AQ  23213.25001157 -.00962337  00000-0 -25942-1 0  9993,2 55307  69.9990 245.4159 0003498 273.0607 119.2239 15.40403131 30881,6823.056,93.482,447.307,442.534,0.0
55307.0,STARLINK-5288,PAYLOAD,2023-08-01 22:00:00,15.39028626,0.0003367,69.9985,243.6244,271.9404,214.5947,-0.023747,-0.00850701,0.0,0 STARLINK-5288,1 55307U 23010AQ  23213.91667824 -.00850701  00000-0 -23747-1 0  9997,2 55307  69.9985 243.6244 0003367 271.9404 214.5947 15.39028626 30994,6827.117,93.566,451.281,446.684,0.0
55307.0,STARLINK-5288,PAYLOAD,2023-08-02 14:00:01,15.37760619,0.0003399,69.9983,241.8365,275.3389,302.2851,-0.026505,-0.00906163,0.0,0 STARLINK-5288,1 55307U 23010AQ  23214.58334491 -.00906163  00000-0 -26505-1 0  9991,2 55307  69.9983 241.8365 0003399 275.3389 302.2851 15.37760619 31095,6830.87,93.643,455.057,450.413,0.0
55307.0,STARLINK-5288,PAYLOAD,2023-08-03 06:00:00,15.36478103,0.0003465,69.9987,240.052,270.3779,35.2102,-0.028935,-0.00945388,0.0,0 STARLINK-5288,1 55307U 23010AQ  23215.25001157 -.00945388  00000-0 -28935-1 0  9997,2 55307  69.9987 240.0520 0003465 270.3779  35.2102 15.36478103 31191,6834.671,93.721,458.904,454.167,0.0
55307.0,STARLINK-5288,PAYLOAD,2023-08-04 06:00:00,15.34519386,0.0003411,69.9987,237.3821,272.795,158.8826,-0.030759,-0.0094382,0.0,0 STARLINK-5288,1 55307U 23010AQ  23216.25001157 -.00943820  00000-0 -30759-1 0  9994,2 55307  69.9987 237.3821 0003411 272.7950 158.8826 15.34519386 31352,6840.485,93.84,464.684,460.017,0.0
55307.0,STARLINK-5288,PAYLOAD,2023-08-05 06:00:00,15.32536931,0.0003338,69.9989,234.7202,272.1088,278.6293,-0.031582,-0.00912717,0.0,0 STARLINK-5288,1 55307U 23010AQ  23217.25001157 -.00912717  00000-0 -31582-1 0  9991,2 55307  69.9989 234.7202 0003338 272.1088 278.6293 15.32536931 31501,6846.383,93.962,470.534,465.963,0.0
55307.0,STARLINK-5288,PAYLOAD,2023-08-06 06:00:00,15.30574158,0.0003382,69.9992,232.0664,271.2481,31.5,-0.033193,-0.00902939,0.0,0 STARLINK-5288,1 55307U 23010AQ  23218.25001157 -.00902939  00000-0 -33193-1 0  9997,2 55307  69.9992 232.0664 0003382 271.2481  31.5000 15.30574158 31653,6852.235,94.082,476.418,471.783,0.0
55307.0,STARLINK-5288,PAYLOAD,2023-08-07 06:00:00,15.28615455,0.0003362,69.9996,229.4203,273.2583,134.4579,-0.035164,-0.00900513,0.0,0 STARLINK-5288,1 55307U 23010AQ  23219.25001157 -.00900513  00000-0 -35164-1 0  9994,2 55307  69.9996 229.4203 0003362 273.2583 134.4579 15.28615455 31803,6858.087,94.203,482.258,477.647,0.0
55307.0,STARLINK-5288,PAYLOAD,2023-08-08 06:00:00,15.26653265,0.0003223,69.9997,226.7821,273.4598,232.1846,-0.03691,-0.00890987,0.0,0 STARLINK-5288,1 55307U 23010AQ  23220.25001157 -.00890987  00000-0 -36910-1 0  9999,2 55307  69.9997 226.7821 0003223 273.4598 232.1846 15.26653265 31963,6863.962,94.324,488.04,483.615,0.0
55307.0,STARLINK-5288,PAYLOAD,2023-08-09 06:00:00,15.24692364,0.0003181,69.9996,224.1518,271.0981,325.4329,-0.038705,-0.00881394,0.0,0 STARLINK-5288,1 55307U 23010AQ  23221.25001157 -.00881394  00000-0 -38705-1 0  9996,2 55307  69.9996 224.1518 0003181 271.0981 325.4329 15.24692364 32111,6869.846,94.445,493.897,489.526,0.0
55307.0,STARLINK-5288,PAYLOAD,2023-08-09 22:00:00,15.23406383,0.0003215,69.9993,222.4026,265.5024,27.6921,-0.040573,-0.00899291,0.0,0 STARLINK-5288,1 55307U 23010AQ  23221.91667824 -.00899291  00000-0 -40573-1 0  9999,2 55307  69.9993 222.4026 0003215 265.5024  27.6921 15.23406383 32210,6873.712,94.525,497.787,493.367,0.0
55307.0,STARLINK-5288,PAYLOAD,2023-08-10 14:00:01,15.22133544,0.0003099,69.999,220.657,272.2987,74.4407,-0.045829,-0.00972208,0.0,0 STARLINK-5288,1 55307U 23010AQ  23222.58334491 -.00972208  00000-0 -45829-1 0  9993,2 55307  69.9990 220.6570 0003099 272.2987  74.4407 15.22133544 32319,6877.543,94.604,501.54,497.277,0.0
55307.0,STARLINK-5288,PAYLOAD,2023-08-11 06:00:00,15.20779461,0.0003226,69.9991,218.9149,271.8304,125.349,-0.043315,-0.00889115,0.0,0 STARLINK-5288,1 55307U 23010AQ  23223.25001157 -.00889115  00000-0 -43315-1 0  9990,2 55307  69.9991 218.9149 0003226 271.8304 125.3490 15.20779461 32413,6881.625,94.688,505.71,501.27,0.0
